KUIPER-00153            
1 65773U 25217M   26193.02460116  .00001300  00000+0  19943-3 0  9998
2 65773  51.9015 195.8672 0000477  69.3696 290.7318 14.79937117 43530
KUIPER-00155            
1 65774U 25217N   26193.32438302  .00000024  00000+0  32123-4 0  9992
2 65774  51.9024 167.0051 0000598  68.4695 291.6331 14.79929369 43968
KUIPER-00156            
1 65775U 25217P   26193.05838719  .00000317  00000+0  70532-4 0  9990
2 65775  51.9020 195.7002 0000482  73.8958 286.2057 14.79926803 43531
KUIPER-00163            
1 65777U 25217R   26193.50444058  .00404423  84281-4  64138-3 0  9999
2 65777  51.8741 132.1848 0003168  89.2802 270.8576 16.03213101 44443
KUIPER-00165            
1 65778U 25217S   26193.04755848  .00001018  00000+0  16246-3 0  9993
2 65778  51.8996 205.6934 0000530  89.6637 270.4387 14.79934712 43396
KUIPER-00166            
1 65779U 25217T   26193.36496257  .00000508  00000+0  95700-4 0  9991
2 65779  51.9026 191.8388 0000477  68.2188 291.8825 14.79928292 43610
KUIPER-00167            
1 65780U 25217U   26193.44192863  .00000977  00000+0  15714-3 0  9994
2 65780  51.8950 213.8600 0000513  82.6687 277.4334 14.79931591 43312
KUIPER-00168            
1 65781U 25217V   26193.05568688  .00001283  00000+0  19735-3 0  9992
2 65781  51.8998 198.1620 0000453  64.9661 295.1349 14.79923278 43507
KUIPER-00169            
1 65782U 25217W   26193.45547149  .00001139  00000+0  17840-3 0  9991
2 65782  51.9004 201.4039 0000454  65.0329 295.0680 14.79931141 43496
KUIPER-00170            
1 65783U 25217X   26193.04488554  .00000069  00000+0  38111-4 0  9997
2 65783  51.8979 208.1777 0000484  55.2500 304.8508 14.79926658 43366
KUIPER-00172            
1 65785U 25217Z   26193.36765704  .00001301  00000+0  19971-3 0  9991
2 65785  51.8978 189.2793 0000855  89.7453 270.3607 14.79929893 43658
KUIPER-00173            
1 65786U 25217AA  26193.42165507  .00001235  00000+0  19099-3 0  9991
2 65786  51.8999 201.5484 0000533  75.2287 284.8734 14.79932421 43488
KUIPER-00174            
1 65787U 25217AB  26193.42708030  .00001397  00000+0  21216-3 0  9999
2 65787  51.9001 196.5744 0000533  48.7826 311.3183 14.79936460 43559
KUIPER-00176            
1 65788U 25217AC  26193.07324142 -.00000047  00000+0  22861-4 0  9999
2 65788  51.8987 213.0725 0001042 111.9060 248.2013 14.79925168 43299
KUIPER-00101            
1 65947U 25228A   26193.35543749 -.00000209  00000+0  16550-5 0  9994
2 65947  51.8980 169.2823 0000684  84.6122 275.4918 14.79928382 41695
KUIPER-00113            
1 65948U 25228B   26193.32707354  .00001225  00000+0  18970-3 0  9990
2 65948  51.8979 164.4280 0000553  72.1829 287.9193 14.79930731 41750
