{"fetched_at":"2026-07-12T17:32:22.539Z","source":"https://celestrak.org/NORAD/elements/gp.php?GROUP=kuiper&FORMAT=JSON","constellation":"kuiper","records":[{"OBJECT_NAME":"KUIPER-00153","OBJECT_ID":"2025-217M","EPOCH":"2026-07-12T00:35:25.540224","CLASSIFICATION_TYPE":"U","MEAN_MOTION":14.79937117,"ECCENTRICITY":0.00004779,"INCLINATION":51.9015,"RA_OF_ASC_NODE":195.8672,"ARG_OF_PERICENTER":69.3696,"MEAN_ANOMALY":290.7318,"EPHEMERIS_TYPE":0,"NORAD_CAT_ID":65773,"ELEMENT_SET_NO":999,"REV_AT_EPOCH":4353,"BSTAR":0.00019942762,"MEAN_MOTION_DOT":0.000013,"MEAN_MOTION_DDOT":0},{"OBJECT_NAME":"KUIPER-00155","OBJECT_ID":"2025-217N","EPOCH":"2026-07-12T07:47:06.692928","CLASSIFICATION_TYPE":"U","MEAN_MOTION":14.79929369,"ECCENTRICITY":0.0000598,"INCLINATION":51.9024,"RA_OF_ASC_NODE":167.0051,"ARG_OF_PERICENTER":68.4695,"MEAN_ANOMALY":291.6331,"EPHEMERIS_TYPE":0,"NORAD_CAT_ID":65774,"ELEMENT_SET_NO":999,"REV_AT_EPOCH":4396,"BSTAR":0.000032123,"MEAN_MOTION_DOT":2.4e-7,"MEAN_MOTION_DDOT":0},{"OBJECT_NAME":"KUIPER-00156","OBJECT_ID":"2025-217P","EPOCH":"2026-07-12T01:24:04.653216","CLASSIFICATION_TYPE":"U","MEAN_MOTION":14.79926803,"ECCENTRICITY":0.00004822,"INCLINATION":51.902,"RA_OF_ASC_NODE":195.7002,"ARG_OF_PERICENTER":73.8958,"MEAN_ANOMALY":286.2057,"EPHEMERIS_TYPE":0,"NORAD_CAT_ID":65775,"ELEMENT_SET_NO":999,"REV_AT_EPOCH":4353,"BSTAR":0.000070531576,"MEAN_MOTION_DOT":0.00000317,"MEAN_MOTION_DDOT":0},{"OBJECT_NAME":"KUIPER-00163","OBJECT_ID":"2025-217R","EPOCH":"2026-07-12T12:06:23.666112","CLASSIFICATION_TYPE":"U","MEAN_MOTION":16.03213101,"ECCENTRICITY":0.0003168,"INCLINATION":51.8741,"RA_OF_ASC_NODE":132.1848,"ARG_OF_PERICENTER":89.2802,"MEAN_ANOMALY":270.8576,"EPHEMERIS_TYPE":0,"NORAD_CAT_ID":65777,"ELEMENT_SET_NO":999,"REV_AT_EPOCH":4444,"BSTAR":0.00064138,"MEAN_MOTION_DOT":0.00404423,"MEAN_MOTION_DDOT":0.000084281},{"OBJECT_NAME":"KUIPER-00165","OBJECT_ID":"2025-217S","EPOCH":"2026-07-12T01:08:29.052672","CLASSIFICATION_TYPE":"U","MEAN_MOTION":14.79934712,"ECCENTRICITY":0.00005303,"INCLINATION":51.8996,"RA_OF_ASC_NODE":205.6934,"ARG_OF_PERICENTER":89.6637,"MEAN_ANOMALY":270.4387,"EPHEMERIS_TYPE":0,"NORAD_CAT_ID":65778,"ELEMENT_SET_NO":999,"REV_AT_EPOCH":4339,"BSTAR":0.00016246158,"MEAN_MOTION_DOT":0.00001018,"MEAN_MOTION_DDOT":0},{"OBJECT_NAME":"KUIPER-00166","OBJECT_ID":"2025-217T","EPOCH":"2026-07-12T08:45:32.766048","CLASSIFICATION_TYPE":"U","MEAN_MOTION":14.79928292,"ECCENTRICITY":0.0000477,"INCLINATION":51.9026,"RA_OF_ASC_NODE":191.8388,"ARG_OF_PERICENTER":68.2188,"MEAN_ANOMALY":291.8825,"EPHEMERIS_TYPE":0,"NORAD_CAT_ID":65779,"ELEMENT_SET_NO":999,"REV_AT_EPOCH":4361,"BSTAR":0.0000957,"MEAN_MOTION_DOT":0.00000508,"MEAN_MOTION_DDOT":0},{"OBJECT_NAME":"KUIPER-00167","OBJECT_ID":"2025-217U","EPOCH":"2026-07-12T10:36:22.633632","CLASSIFICATION_TYPE":"U","MEAN_MOTION":14.79931591,"ECCENTRICITY":0.0000513,"INCLINATION":51.895,"RA_OF_ASC_NODE":213.86,"ARG_OF_PERICENTER":82.6687,"MEAN_ANOMALY":277.4334,"EPHEMERIS_TYPE":0,"NORAD_CAT_ID":65780,"ELEMENT_SET_NO":999,"REV_AT_EPOCH":4331,"BSTAR":0.00015714,"MEAN_MOTION_DOT":0.00000977,"MEAN_MOTION_DDOT":0},{"OBJECT_NAME":"KUIPER-00168","OBJECT_ID":"2025-217V","EPOCH":"2026-07-12T01:20:11.346432","CLASSIFICATION_TYPE":"U","MEAN_MOTION":14.79923278,"ECCENTRICITY":0.00004538,"INCLINATION":51.8998,"RA_OF_ASC_NODE":198.162,"ARG_OF_PERICENTER":64.9661,"MEAN_ANOMALY":295.1349,"EPHEMERIS_TYPE":0,"NORAD_CAT_ID":65781,"ELEMENT_SET_NO":999,"REV_AT_EPOCH":4350,"BSTAR":0.00019735203,"MEAN_MOTION_DOT":0.00001283,"MEAN_MOTION_DDOT":0},{"OBJECT_NAME":"KUIPER-00169","OBJECT_ID":"2025-217W","EPOCH":"2026-07-12T10:55:52.736736","CLASSIFICATION_TYPE":"U","MEAN_MOTION":14.79931141,"ECCENTRICITY":0.0000454,"INCLINATION":51.9004,"RA_OF_ASC_NODE":201.4039,"ARG_OF_PERICENTER":65.0329,"MEAN_ANOMALY":295.068,"EPHEMERIS_TYPE":0,"NORAD_CAT_ID":65782,"ELEMENT_SET_NO":999,"REV_AT_EPOCH":4349,"BSTAR":0.0001784,"MEAN_MOTION_DOT":0.00001139,"MEAN_MOTION_DDOT":0},{"OBJECT_NAME":"KUIPER-00170","OBJECT_ID":"2025-217X","EPOCH":"2026-07-12T01:04:38.110656","CLASSIFICATION_TYPE":"U","MEAN_MOTION":14.79926658,"ECCENTRICITY":0.00004847,"INCLINATION":51.8979,"RA_OF_ASC_NODE":208.1777,"ARG_OF_PERICENTER":55.25,"MEAN_ANOMALY":304.8508,"EPHEMERIS_TYPE":0,"NORAD_CAT_ID":65783,"ELEMENT_SET_NO":999,"REV_AT_EPOCH":4336,"BSTAR":0.000038110873,"MEAN_MOTION_DOT":6.9e-7,"MEAN_MOTION_DDOT":0},{"OBJECT_NAME":"KUIPER-00172","OBJECT_ID":"2025-217Z","EPOCH":"2026-07-12T08:49:25.568256","CLASSIFICATION_TYPE":"U","MEAN_MOTION":14.79929893,"ECCENTRICITY":0.0000855,"INCLINATION":51.8978,"RA_OF_ASC_NODE":189.2793,"ARG_OF_PERICENTER":89.7453,"MEAN_ANOMALY":270.3607,"EPHEMERIS_TYPE":0,"NORAD_CAT_ID":65785,"ELEMENT_SET_NO":999,"REV_AT_EPOCH":4365,"BSTAR":0.00019971,"MEAN_MOTION_DOT":0.00001301,"MEAN_MOTION_DDOT":0},{"OBJECT_NAME":"KUIPER-00173","OBJECT_ID":"2025-217AA","EPOCH":"2026-07-12T10:07:10.998048","CLASSIFICATION_TYPE":"U","MEAN_MOTION":14.79932421,"ECCENTRICITY":0.0000533,"INCLINATION":51.8999,"RA_OF_ASC_NODE":201.5484,"ARG_OF_PERICENTER":75.2287,"MEAN_ANOMALY":284.8734,"EPHEMERIS_TYPE":0,"NORAD_CAT_ID":65786,"ELEMENT_SET_NO":999,"REV_AT_EPOCH":4348,"BSTAR":0.00019099,"MEAN_MOTION_DOT":0.00001235,"MEAN_MOTION_DDOT":0},{"OBJECT_NAME":"KUIPER-00174","OBJECT_ID":"2025-217AB","EPOCH":"2026-07-12T10:14:59.737920","CLASSIFICATION_TYPE":"U","MEAN_MOTION":14.7993646,"ECCENTRICITY":0.0000533,"INCLINATION":51.9001,"RA_OF_ASC_NODE":196.5744,"ARG_OF_PERICENTER":48.7826,"MEAN_ANOMALY":311.3183,"EPHEMERIS_TYPE":0,"NORAD_CAT_ID":65787,"ELEMENT_SET_NO":999,"REV_AT_EPOCH":4355,"BSTAR":0.00021216,"MEAN_MOTION_DOT":0.00001397,"MEAN_MOTION_DDOT":0},{"OBJECT_NAME":"KUIPER-00176","OBJECT_ID":"2025-217AC","EPOCH":"2026-07-12T01:45:28.058688","CLASSIFICATION_TYPE":"U","MEAN_MOTION":14.79925168,"ECCENTRICITY":0.00010423,"INCLINATION":51.8987,"RA_OF_ASC_NODE":213.0725,"ARG_OF_PERICENTER":111.906,"MEAN_ANOMALY":248.2013,"EPHEMERIS_TYPE":0,"NORAD_CAT_ID":65788,"ELEMENT_SET_NO":999,"REV_AT_EPOCH":4329,"BSTAR":0.000022861258,"MEAN_MOTION_DOT":-4.7e-7,"MEAN_MOTION_DDOT":0},{"OBJECT_NAME":"KUIPER-00101","OBJECT_ID":"2025-228A","EPOCH":"2026-07-12T08:31:49.799136","CLASSIFICATION_TYPE":"U","MEAN_MOTION":14.79928382,"ECCENTRICITY":0.0000684,"INCLINATION":51.898,"RA_OF_ASC_NODE":169.2823,"ARG_OF_PERICENTER":84.6122,"MEAN_ANOMALY":275.4918,"EPHEMERIS_TYPE":0,"NORAD_CAT_ID":65947,"ELEMENT_SET_NO":999,"REV_AT_EPOCH":4169,"BSTAR":0.000001655,"MEAN_MOTION_DOT":-0.00000209,"MEAN_MOTION_DDOT":0},{"OBJECT_NAME":"KUIPER-00113","OBJECT_ID":"2025-228B","EPOCH":"2026-07-12T07:50:59.153856","CLASSIFICATION_TYPE":"U","MEAN_MOTION":14.79930731,"ECCENTRICITY":0.0000553,"INCLINATION":51.8979,"RA_OF_ASC_NODE":164.428,"ARG_OF_PERICENTER":72.1829,"MEAN_ANOMALY":287.9193,"EPHEMERIS_TYPE":0,"NORAD_CAT_ID":65948,"ELEMENT_SET_NO":999,"REV_AT_EPOCH":4175,"BSTAR":0.0001897,"MEAN_MOTION_DOT":0.00001225,"MEAN_MOTION_DDOT":0}]}
